{
  "norad_id": 62172,
  "name": "STARLINK-32407",
  "history": [
    {
      "epoch": "2026-03-28T11:58:58.312992Z",
      "apogee_km": 574.4664482871849,
      "perigee_km": 569.5674237807534,
      "latitude_deg": -2.1274827540168742e-05,
      "longitude_deg": 111.32126696173023,
      "height_km": 574.3976556152918,
      "semi_major_axis_km": 6950.153936033969,
      "eccentricity": 0.00035244,
      "inclination_deg": 70.0006,
      "raan_deg": 116.9831,
      "arg_perigee_deg": 271.1061,
      "mean_anomaly_deg": 88.9694,
      "mean_motion_rev_day": 14.98342597
    },
    {
      "epoch": "2026-03-29T04:00:18.743904Z",
      "apogee_km": 574.4324795537214,
      "perigee_km": 569.6021223145726,
      "latitude_deg": 1.1907725403215914e-05,
      "longitude_deg": -131.35536413860652,
      "height_km": 574.4018750265124,
      "semi_major_axis_km": 6950.154300934147,
      "eccentricity": 0.0003475,
      "inclination_deg": 70.0004,
      "raan_deg": 115.2996,
      "arg_perigee_deg": 271.0289,
      "mean_anomaly_deg": 89.0472,
      "mean_motion_rev_day": 14.98342479
    },
    {
      "epoch": "2026-03-30T02:26:11.590656Z",
      "apogee_km": 574.4090515826811,
      "perigee_km": 569.6620837189748,
      "latitude_deg": 1.1733359975753622e-05,
      "longitude_deg": -111.10318112026684,
      "height_km": 574.3876286566068,
      "semi_major_axis_km": 6950.172567650828,
      "eccentricity": 0.0003415,
      "inclination_deg": 70.0006,
      "raan_deg": 112.9432,
      "arg_perigee_deg": 271.8308,
      "mean_anomaly_deg": 88.246,
      "mean_motion_rev_day": 14.98336572
    },
    {
      "epoch": "2026-03-30T05:38:27.725568Z",
      "apogee_km": 574.4299594263994,
      "perigee_km": 569.6562977068943,
      "latitude_deg": 3.042991923719956e-05,
      "longitude_deg": -159.63880639453293,
      "height_km": 574.3944340013047,
      "semi_major_axis_km": 6950.180128566646,
      "eccentricity": 0.00034342,
      "inclination_deg": 70.0007,
      "raan_deg": 112.6064,
      "arg_perigee_deg": 271.8392,
      "mean_anomaly_deg": 88.2374,
      "mean_motion_rev_day": 14.98334127
    },
    {
      "epoch": "2026-03-30T12:02:59.995392Z",
      "apogee_km": 574.2812648401077,
      "perigee_km": 569.7606041132076,
      "latitude_deg": -4.9098788762900985e-05,
      "longitude_deg": 103.29100073501263,
      "height_km": 574.5131453978415,
      "semi_major_axis_km": 6950.157934476658,
      "eccentricity": 0.00032522,
      "inclination_deg": 70.0008,
      "raan_deg": 111.9339,
      "arg_perigee_deg": 268.3666,
      "mean_anomaly_deg": 91.712,
      "mean_motion_rev_day": 14.98341304
    },
    {
      "epoch": "2026-03-30T18:27:32.450112Z",
      "apogee_km": 574.4835686767228,
      "perigee_km": 569.638863508214,
      "latitude_deg": 3.4051757730453994e-05,
      "longitude_deg": 6.218494239366504,
      "height_km": 574.4853885590339,
      "semi_major_axis_km": 6950.198216092468,
      "eccentricity": 0.00034853,
      "inclination_deg": 70.0015,
      "raan_deg": 111.2598,
      "arg_perigee_deg": 270.091,
      "mean_anomaly_deg": 89.985,
      "mean_motion_rev_day": 14.98328278
    },
    {
      "epoch": "2026-03-31T08:52:45.825312Z",
      "apogee_km": 574.4308503620468,
      "perigee_km": 569.7675198912739,
      "latitude_deg": -1.2597784283958235e-05,
      "longitude_deg": 147.80542409535846,
      "height_km": 574.6490016230323,
      "semi_major_axis_km": 6950.2361851266605,
      "eccentricity": 0.00033548,
      "inclination_deg": 70.0002,
      "raan_deg": 109.7447,
      "arg_perigee_deg": 267.0006,
      "mean_anomaly_deg": 93.0769,
      "mean_motion_rev_day": 14.98316
    },
    {
      "epoch": "2026-04-01T18:31:36.115392Z",
      "apogee_km": 574.5048273942002,
      "perigee_km": 569.620227166427,
      "latitude_deg": -3.0881177794362543e-05,
      "longitude_deg": -1.821668311029693,
      "height_km": 574.658107165511,
      "semi_major_axis_km": 6950.199527280313,
      "eccentricity": 0.0003514,
      "inclination_deg": 69.9998,
      "raan_deg": 106.209,
      "arg_perigee_deg": 266.0643,
      "mean_anomaly_deg": 94.0114,
      "mean_motion_rev_day": 14.98327854
    },
    {
      "epoch": "2026-04-02T18:33:35.966016Z",
      "apogee_km": 574.4793946316713,
      "perigee_km": 569.4322372287443,
      "latitude_deg": 6.742288010782956e-05,
      "longitude_deg": -5.832821728940109,
      "height_km": 574.5827260320129,
      "semi_major_axis_km": 6950.0928159302075,
      "eccentricity": 0.0003631,
      "inclination_deg": 69.9997,
      "raan_deg": 103.6842,
      "arg_perigee_deg": 265.481,
      "mean_anomaly_deg": 94.5935,
      "mean_motion_rev_day": 14.98362362
    },
    {
      "epoch": "2026-04-03T10:34:54.892704Z",
      "apogee_km": 574.4286660780863,
      "perigee_km": 569.3431952992423,
      "latitude_deg": -4.2630464346845395e-05,
      "longitude_deg": 111.49698031693765,
      "height_km": 574.5363001807275,
      "semi_major_axis_km": 6950.022930688664,
      "eccentricity": 0.00036586,
      "inclination_deg": 69.9995,
      "raan_deg": 102.0009,
      "arg_perigee_deg": 264.9857,
      "mean_anomaly_deg": 95.0884,
      "mean_motion_rev_day": 14.98384962
    }
  ]
}